OBJECT_NAME,OBJECT_ID,EPOCH,MEAN_MOTION,ECCENTRICITY,INCLINATION,RA_OF_ASC_NODE,ARG_OF_PERICENTER,MEAN_ANOMALY,EPHEMERIS_TYPE,CLASSIFICATION_TYPE,NORAD_CAT_ID,ELEMENT_SET_NO,REV_AT_EPOCH,BSTAR,MEAN_MOTION_DOT,MEAN_MOTION_DDOT
ONEWEB-0198,2021-031G,2026-07-16T07:17:19.948704,13.14503135,.00024754,87.8960,283.9081,99.4509,260.6901,0,U,48216,999,25231,.52876624E-3,.209E-5,0
ONEWEB-0189,2021-031H,2026-07-16T11:14:37.197312,13.14502804,.00023882,87.8971,283.8647,99.7135,260.4265,0,U,48217,999,25207,.61916286E-3,.242E-5,0
ONEWEB-0196,2021-031J,2026-07-16T12:32:15.506880,13.14502738,.0002196,87.8965,283.8623,98.1629,261.9750,0,U,48218,999,25208,.18361463E-3,.81E-6,0
ONEWEB-0183,2021-031K,2026-07-16T06:26:53.139840,13.14502478,.00019762,87.8966,283.9104,94.0024,266.1332,0,U,48219,999,25214,-.56793273E-3,-.198E-5,0
ONEWEB-0185,2021-031L,2026-07-16T07:04:32.635488,13.14504271,.00022015,87.8975,283.9011,89.1370,271.0012,0,U,48220,999,25207,.34175098E-3,.139E-5,0
ONEWEB-0187,2021-031M,2026-07-16T13:54:15.139296,13.14503606,.0002195,87.8967,283.8576,95.7287,264.4093,0,U,48221,999,25212,-.44725098E-3,-.153E-5,0
ONEWEB-0192,2021-031N,2026-07-16T05:52:38.271360,13.14503391,.00021318,87.8968,283.9145,100.2603,259.8767,0,U,48222,999,25199,.39903034E-3,.161E-5,0
ONEWEB-0219,2021-031P,2026-07-16T07:12:32.516640,13.14503827,.0002212,87.8975,283.8969,94.0696,266.0686,0,U,48223,999,25220,.55852959E-3,.22E-5,0
ONEWEB-0202,2021-031Q,2026-07-16T12:13:59.623104,13.14502591,.00026879,87.8969,283.8674,106.4434,253.6992,0,U,48224,999,25221,-.41528513E-3,-.141E-5,0
ONEWEB-0204,2021-031R,2026-07-16T05:44:38.239008,13.14502338,.00017806,87.8971,283.9156,88.3584,271.7750,0,U,48225,999,25207,.11839484E-2,.452E-5,0
ONEWEB-0205,2021-031S,2026-07-16T06:58:51.385728,13.14502957,.00023109,87.8974,283.9005,94.9656,265.1737,0,U,48226,999,25209,.16783751E-3,.75E-6,0
ONEWEB-0206,2021-031T,2026-07-16T06:20:01.809312,13.14501651,.00018901,87.8971,283.9057,101.7571,258.3771,0,U,48227,999,25204,-.49042402E-3,-.169E-5,0
ONEWEB-0182,2021-031U,2026-07-16T06:13:09.915456,13.14504412,.00019168,87.8968,283.9134,93.9900,266.1449,0,U,48228,999,25225,-.25498998E-3,-.82E-6,0
ONEWEB-0186,2021-031V,2026-07-16T06:29:09.901536,13.14502922,.00021341,87.8979,283.9045,97.0843,263.0530,0,U,48229,999,25220,-.57973631E-3,-.202E-5,0
ONEWEB-0181,2021-031W,2026-07-16T15:05:13.853184,13.14501878,.00022072,87.8962,283.8576,97.8130,262.3250,0,U,48230,999,25210,.10239481E-3,.51E-6,0
ONEWEB-0188,2021-031X,2026-07-16T06:52:00.051744,13.14502504,.00020759,87.8959,283.9252,97.4976,262.6390,0,U,48231,999,25196,-.32464823E-4,.1E-7,0
ONEWEB-0220,2021-031Y,2026-07-16T05:59:30.174720,13.14494208,.00021919,87.8978,283.9098,91.9167,268.2214,0,U,48232,999,25222,.25661461E-3,.108E-5,0
ONEWEB-0165,2021-031Z,2026-07-16T12:09:24.916032,13.14503754,.00024565,87.8967,283.8695,100.8846,259.2561,0,U,48233,999,25221,-.30723211E-3,-.101E-5,0
ONEWEB-0199,2021-031AA,2026-07-16T11:46:34.942080,13.14502315,.00019104,87.8978,283.8604,100.9002,259.2343,0,U,48234,999,25211,-.15121228E-3,-.43E-6,0
ONEWEB-0203,2021-031AB,2026-07-16T11:32:52.742400,13.14501838,.00021077,87.8975,283.8648,105.0997,255.0366,0,U,48235,999,25212,.22087279E-3,.95E-6,0
ONEWEB-0197,2021-031AC,2026-07-16T07:16:55.200288,13.14502645,.00019678,87.8963,283.8844,91.7000,268.4355,0,U,48236,999,25201,.68889504E-3,.268E-5,0
ONEWEB-0194,2021-031AD,2026-07-16T06:47:25.501056,13.14504284,.00019565,87.8965,283.9115,105.0747,255.0599,0,U,48237,999,25218,-.1423758E-3,-.4E-6,0
ONEWEB-0193,2021-031AE,2026-07-16T12:39:06.423552,13.14502802,.00018438,87.8965,283.8533,110.4098,249.7230,0,U,48238,999,25216,.59630763E-3,.234E-5,0
ONEWEB-0191,2021-031AF,2026-07-16T07:26:14.296416,13.14506528,.00019212,87.8976,283.8972,95.3549,264.7800,0,U,48239,999,25199,.5761455E-3,.226E-5,0
ONEWEB-0195,2021-031AG,2026-07-16T06:53:08.452032,13.14503990,.00024595,87.8974,283.9023,99.2450,260.8958,0,U,48240,999,25197,-.30213408E-4,.2E-7,0
ONEWEB-0201,2021-031AH,2026-07-16T12:05:02.189184,13.14503233,.00020355,87.8968,283.8731,90.6595,269.4768,0,U,48241,999,25223,-.44585895E-3,-.153E-5,0
ONEWEB-0207,2021-031AJ,2026-07-16T11:36:17.071488,13.14501296,.00020582,87.8975,283.8633,91.9797,268.1568,0,U,48242,999,25214,.19034031E-3,.83E-6,0
ONEWEB-0208,2021-031AK,2026-07-16T11:10:02.669952,13.14502325,.00023668,87.8969,283.8727,101.6487,258.4908,0,U,48243,999,25215,.47810848E-3,.19E-5,0
ONEWEB-0200,2021-031AL,2026-07-16T13:56:44.765952,13.14503023,.0002125,87.8980,283.8388,97.9259,262.2112,0,U,48244,999,25209,-.436397E-3,-.149E-5,0
ONEWEB-0217,2021-031AM,2026-07-16T07:01:08.336640,13.14503059,.00024147,87.8977,283.9003,101.7765,258.3635,0,U,48245,999,25200,.22227461E-3,.95E-6,0
