ONEWEB-0198             
1 48216U 21031G   26197.30370311  .00000209  00000+0  52877-3 0  9993
2 48216  87.8960 283.9081 0002475  99.4509 260.6901 13.14503135252319
ONEWEB-0189             
1 48217U 21031H   26197.46848608  .00000242  00000+0  61916-3 0  9991
2 48217  87.8971 283.8647 0002388  99.7135 260.4265 13.14502804252076
ONEWEB-0196             
1 48218U 21031J   26197.52240170  .00000081  00000+0  18361-3 0  9996
2 48218  87.8965 283.8623 0002196  98.1629 261.9750 13.14502738252084
ONEWEB-0183             
1 48219U 21031K   26197.26867060 -.00000198  00000+0 -56793-3 0  9993
2 48219  87.8966 283.9104 0001976  94.0024 266.1332 13.14502478252141
ONEWEB-0185             
1 48220U 21031L   26197.29482217  .00000139  00000+0  34175-3 0  9998
2 48220  87.8975 283.9011 0002201  89.1370 271.0012 13.14504271252076
ONEWEB-0187             
1 48221U 21031M   26197.57934189 -.00000153  00000+0 -44725-3 0  9990
2 48221  87.8967 283.8576 0002195  95.7287 264.4093 13.14503606252127
ONEWEB-0192             
1 48222U 21031N   26197.24488740  .00000161  00000+0  39903-3 0  9991
2 48222  87.8968 283.9145 0002131 100.2603 259.8767 13.14503391251997
ONEWEB-0219             
1 48223U 21031P   26197.30037635  .00000220  00000+0  55853-3 0  9990
2 48223  87.8975 283.8969 0002212  94.0696 266.0686 13.14503827252200
ONEWEB-0202             
1 48224U 21031Q   26197.50971786 -.00000141  00000+0 -41529-3 0  9996
2 48224  87.8969 283.8674 0002687 106.4434 253.6992 13.14502591252211
ONEWEB-0204             
1 48225U 21031R   26197.23933147  .00000452  00000+0  11839-2 0  9999
2 48225  87.8971 283.9156 0001780  88.3584 271.7750 13.14502338252074
ONEWEB-0205             
1 48226U 21031S   26197.29087252  .00000075  00000+0  16784-3 0  9999
2 48226  87.8974 283.9005 0002310  94.9656 265.1737 13.14502957252095
ONEWEB-0206             
1 48227U 21031T   26197.26390983 -.00000169  00000+0 -49042-3 0  9994
2 48227  87.8971 283.9057 0001890 101.7571 258.3771 13.14501651252042
ONEWEB-0182             
1 48228U 21031U   26197.25914254 -.00000082  00000+0 -25499-3 0  9991
2 48228  87.8968 283.9134 0001916  93.9900 266.1449 13.14504412252252
ONEWEB-0186             
1 48229U 21031V   26197.27025349 -.00000202  00000+0 -57974-3 0  9999
2 48229  87.8979 283.9045 0002134  97.0843 263.0530 13.14502922252206
ONEWEB-0181             
1 48230U 21031W   26197.62863256  .00000051  00000+0  10239-3 0  9990
2 48230  87.8962 283.8576 0002207  97.8130 262.3250 13.14501878252105
ONEWEB-0188             
1 48231U 21031X   26197.28611171  .00000001  00000+0 -32465-4 0  9992
2 48231  87.8959 283.9252 0002075  97.4976 262.6390 13.14502504251969
ONEWEB-0220             
1 48232U 21031Y   26197.24965480  .00000108  00000+0  25661-3 0  9990
2 48232  87.8978 283.9098 0002191  91.9167 268.2214 13.14494208252227
ONEWEB-0165             
1 48233U 21031Z   26197.50653838 -.00000101  00000+0 -30723-3 0  9991
2 48233  87.8967 283.8695 0002456 100.8846 259.2561 13.14503754252217
ONEWEB-0199             
1 48234U 21031AA  26197.49068220 -.00000043  00000+0 -15121-3 0  9995
2 48234  87.8978 283.8604 0001910 100.9002 259.2343 13.14502315252118
ONEWEB-0203             
1 48235U 21031AB  26197.48116600  .00000095  00000+0  22087-3 0  9995
2 48235  87.8975 283.8648 0002107 105.0997 255.0366 13.14501838252121
ONEWEB-0197             
1 48236U 21031AC  26197.30341667  .00000268  00000+0  68890-3 0  9994
2 48236  87.8963 283.8844 0001967  91.7000 268.4355 13.14502645252017
ONEWEB-0194             
1 48237U 21031AD  26197.28293404 -.00000040  00000+0 -14238-3 0  9994
2 48237  87.8965 283.9115 0001956 105.0747 255.0599 13.14504284252188
ONEWEB-0193             
1 48238U 21031AE  26197.52715768  .00000234  00000+0  59631-3 0  9993
2 48238  87.8965 283.8533 0001843 110.4098 249.7230 13.14502802252160
ONEWEB-0191             
1 48239U 21031AF  26197.30988769  .00000226  00000+0  57615-3 0  9994
2 48239  87.8976 283.8972 0001921  95.3549 264.7800 13.14506528251998
ONEWEB-0195             
1 48240U 21031AG  26197.28690338  .00000002  00000+0 -30213-4 0  9994
2 48240  87.8974 283.9023 0002459  99.2450 260.8958 13.14503990251976
ONEWEB-0201             
1 48241U 21031AH  26197.50349756 -.00000153  00000+0 -44586-3 0  9990
2 48241  87.8968 283.8731 0002035  90.6595 269.4768 13.14503233252234
ONEWEB-0207             
1 48242U 21031AJ  26197.48353092  .00000083  00000+0  19034-3 0  9996
2 48242  87.8975 283.8633 0002058  91.9797 268.1568 13.14501296252148
ONEWEB-0208             
1 48243U 21031AK  26197.46530868  .00000190  00000+0  47811-3 0  9996
2 48243  87.8969 283.8727 0002366 101.6487 258.4908 13.14502325252158
ONEWEB-0200             
1 48244U 21031AL  26197.58107368 -.00000149  00000+0 -43640-3 0  9997
2 48244  87.8980 283.8388 0002125  97.9259 262.2112 13.14503023252091
ONEWEB-0217             
1 48245U 21031AM  26197.29245760  .00000095  00000+0  22227-3 0  9991
2 48245  87.8977 283.9003 0002414 101.7765 258.3635 13.14503059252006
